LEMUR-2-VALHALLA        
1 58900U 24022B   26197.11783350  .00008848  00000+0  21993-3 0  9999
2 58900  97.4075  47.4706 0009123  21.0050 339.1569 15.40504761136725
LEMUR-2-CAEL            
1 58903U 24022E   26197.16751785  .00009499  00000+0  22563-3 0  9991
2 58903  97.4056  48.5091 0007022   6.0617 354.0714 15.41875695136809
LEMUR-2-JOHNNYTRUONG    
1 59146U 24043BA  26196.98636197  .00026505  00000+0  29764-3 0  9999
2 59146  97.5396 350.5235 0004044  92.1391 268.0330 15.62606919132537
LEMUR-2-TOMATOKECHUP    
1 60471U 24149D   26197.22156474  .00005790  00000+0  16437-3 0  9998
2 60471  97.3797 279.3527 0003334 120.7156 239.4418 15.36594859106623
LEMUR-2-STELLA          
1 60533U 24149BT  26197.19850837  .00005213  00000+0  30425-3 0  9990
2 60533  97.6736 279.7913 0001252 119.4240 240.7115 15.12381661104881
LEMUR-2-MARHISYAM       
1 60536U 24149BW  26197.18981359  .00005441  00000+0  32263-3 0  9991
2 60536  97.6879 280.2601 0002338  68.0137 292.1341 15.11787785104869
LEMUR-2-AHMED-ASRAR     
1 60576U 24149DN  26197.19531720  .00006078  00000+0  34500-3 0  9992
2 60576  97.7004 282.4729 0001293 203.7256 156.3916 15.13317903104950
LEMUR-2-LLOYD           
1 60577U 24149DP  26197.20906754  .00004440  00000+0  27902-3 0  9997
2 60577  97.6745 278.3629 0004733  70.1548 290.0190 15.09760819104770
LEMUR-2-SQUIRRELCOMM    
1 60578U 24149DQ  26197.19922737  .00002060  00000+0  14009-3 0  9995
2 60578  97.6708 278.0240 0004045 322.9708  37.1239 15.07450971104775
LEMUR-2-SIERRINI        
1 60579U 24149DR  26197.21887706  .00005239  00000+0  31296-3 0  9993
2 60579  97.6842 279.9499 0006474  87.8684 272.3287 15.11524285104848
LEMUR-2-WILSON          
1 62694U 25009CP  26197.20562544  .00000706  00000+0  69278-4 0  9994
2 62694  97.7020 275.1617 0001950 319.2940  40.8135 14.95277923 81690
LEMUR-2-STAR-FOX        
1 62696U 25009CR  26197.19216881  .00003311  00000+0  25160-3 0  9990
2 62696  97.6906 278.5926 0002076  38.2858 321.8515 15.02847456 81912
LEMUR-2-ARIANNA         
1 62699U 25009CU  26197.19063443  .00003528  00000+0  26779-3 0  9994
2 62699  97.6848 278.3426 0002441  45.4867 314.6558 15.02849743 81917
LEMUR-2-ALISIA          
1 62706U 25009DB  26197.16278189  .00003920  00000+0  29439-3 0  9997
2 62706  97.6971 279.1419 0004420 126.4435 233.7199 15.03183137104517
LEMUR-2-ROUNDTRIPPER    
1 62711U 25009DG  26197.16729119  .00004268  00000+0  31136-3 0  9990
2 62711  97.7251 279.8114 0004487  62.0486 298.1193 15.04240391 81989
LEMUR-2-MYNAMEISJEFF    
1 62712U 25009DH  26196.76665947  .00004503  00000+0  32837-3 0  9995
2 62712  97.7301 279.8094 0004115  96.2499 263.9195 15.04228449 81920
